[{"OBJECT_NAME":"STARLINK-35136","OBJECT_ID":"2025-200T","EPOCH":"2026-03-09T17:22:37.635744","MEAN_MOTION":15.0562863,"ECCENTRICITY":0.00016048,"INCLINATION":97.6024,"RA_OF_ASC_NODE":139.7945,"ARG_OF_PERICENTER":88.3851,"MEAN_ANOMALY":271.7559,"EPHEMERIS_TYPE":0,"CLASSIFICATION_TYPE":"U","NORAD_CAT_ID":65537,"ELEMENT_SET_NO":999,"REV_AT_EPOCH":2904,"BSTAR":0.00068992897,"MEAN_MOTION_DOT":9.902e-5,"MEAN_MOTION_DDOT":0},{"OBJECT_NAME":"ELECTRON KICK STAGE R\/B","OBJECT_ID":"2025-050C","EPOCH":"2026-03-09T00:02:16.856736","MEAN_MOTION":15.02509392,"ECCENTRICITY":0.00035941,"INCLINATION":42.0177,"RA_OF_ASC_NODE":293.46,"ARG_OF_PERICENTER":187.3175,"MEAN_ANOMALY":172.76,"EPHEMERIS_TYPE":0,"CLASSIFICATION_TYPE":"U","NORAD_CAT_ID":63207,"ELEMENT_SET_NO":999,"REV_AT_EPOCH":5391,"BSTAR":0.00054837611,"MEAN_MOTION_DOT":7.227e-5,"MEAN_MOTION_DDOT":0}]
